{"type": "FeatureCollection", "features": [ {"type": "Feature", "properties": {"norad_id": 66520, "name": "STARLINK-35952", "group": "last-30-days", "lat": -42.240371831077006, "lon": -24.597536474256916, "alt_km": 400.19896382439765, "timestamp": "2025-12-08T13:49:30.576633+00:00", "meta": {"OBJECT_NAME": "STARLINK-35952", "OBJECT_ID": "2025-265E", "EPOCH": "2025-12-08T06:00:02.999808", "MEAN_MOTION": 15.57920577, "ECCENTRICITY": 0.00010757, "INCLINATION": 43.0002, "RA_OF_ASC_NODE": 80.3121, "ARG_OF_PERICENTER": 264.3342, "MEAN_ANOMALY": 326.2666, "EPHEMERIS_TYPE": 0, "CLASSIFICATION_TYPE": "U", "NORAD_CAT_ID": 66520, "ELEMENT_SET_NO": 999, "REV_AT_EPOCH": 427, "BSTAR": -0.029280606, "MEAN_MOTION_DOT": -0.0197449, "MEAN_MOTION_DDOT": 0}, "tle": {"line1": "1 66520U 25265E   25342.25003472 -.01974490  00000+0 -29281-1 0  9996", "line2": "2 66520  43.0002  80.3121 0001075 264.3342 326.2666 15.57920577  4274"}}, "geometry": {"type": "Point", "coordinates": [-24.597536474256916, -42.240371831077006]}}, {"type": "Feature", "properties": {"norad_id": 66521, "name": "STARLINK-35915", "group": "last-30-days", "lat": -42.504937338441756, "lon": -22.04061007995109, "alt_km": 400.204595251872, "timestamp": "2025-12-08T13:49:30.576644+00:00", "meta": {"OBJECT_NAME": "STARLINK-35915", "OBJECT_ID": "2025-265F", "EPOCH": "2025-12-08T06:00:02.999808", "MEAN_MOTION": 15.5792239, "ECCENTRICITY": 0.00010893, "INCLINATION": 43.0005, "RA_OF_ASC_NODE": 80.307, "ARG_OF_PERICENTER": 269.5877, "MEAN_ANOMALY": 322.9264, "EPHEMERIS_TYPE": 0, "CLASSIFICATION_TYPE": "U", "NORAD_CAT_ID": 66521, "ELEMENT_SET_NO": 999, "REV_AT_EPOCH": 427, "BSTAR": -0.029283129, "MEAN_MOTION_DOT": -0.01974767, "MEAN_MOTION_DDOT": 0}, "tle": {"line1": "1 66521U 25265F   25342.25003472 -.01974767  00000+0 -29283-1 0  9996", "line2": "2 66521  43.0005  80.3070 0001089 269.5877 322.9264 15.57922390  4278"}}, "geometry": {"type": "Point", "coordinates": [-22.04061007995109, -42.504937338441756]}}, {"type": "Feature", "properties": {"norad_id": 66522, "name": "STARLINK-35946", "group": "last-30-days", "lat": -42.711756839412644, "lon": -19.456791749330225, "alt_km": 400.131332625484, "timestamp": "2025-12-08T13:49:30.576655+00:00", "meta": {"OBJECT_NAME": "STARLINK-35946", "OBJECT_ID": "2025-265G", "EPOCH": "2025-12-08T06:00:02.999808", "MEAN_MOTION": 15.57926067, "ECCENTRICITY": 0.00012127, "INCLINATION": 43, "RA_OF_ASC_NODE": 80.3012, "ARG_OF_PERICENTER": 268.0183, "MEAN_ANOMALY": 326.4154, "EPHEMERIS_TYPE": 0, "CLASSIFICATION_TYPE": "U", "NORAD_CAT_ID": 66522, "ELEMENT_SET_NO": 999, "REV_AT_EPOCH": 427, "BSTAR": -0.029443251, "MEAN_MOTION_DOT": -0.01984555, "MEAN_MOTION_DDOT": 0}, "tle": {"line1": "1 66522U 25265G   25342.25003472 -.01984555  00000+0 -29443-1 0  9991", "line2": "2 66522  43.0000  80.3012 0001212 268.0183 326.4154 15.57926067  4274"}}, "geometry": {"type": "Point", "coordinates": [-19.456791749330225, -42.711756839412644]}}, {"type": "Feature", "properties": {"norad_id": 66523, "name": "STARLINK-35969", "group": "last-30-days", "lat": -42.860539531874366, "lon": -16.86057323738693, "alt_km": 400.1004810394734, "timestamp": "2025-12-08T13:49:30.576666+00:00", "meta": {"OBJECT_NAME": "STARLINK-35969", "OBJECT_ID": "2025-265H", "EPOCH": "2025-12-08T06:00:02.999808", "MEAN_MOTION": 15.57923964, "ECCENTRICITY": 0.0001278, "INCLINATION": 43.0003, "RA_OF_ASC_NODE": 80.2961, "ARG_OF_PERICENTER": 271.0003, "MEAN_ANOMALY": 325.3541, "EPHEMERIS_TYPE": 0, "CLASSIFICATION_TYPE": "U", "NORAD_CAT_ID": 66523, "ELEMENT_SET_NO": 999, "REV_AT_EPOCH": 427, "BSTAR": -0.029437222, "MEAN_MOTION_DOT": -0.01984105, "MEAN_MOTION_DDOT": 0}, "tle": {"line1": "1 66523U 25265H   25342.25003472 -.01984105  00000+0 -29437-1 0  9996", "line2": "2 66523  43.0003  80.2961 0001278 271.0003 325.3541 15.57923964  4278"}}, "geometry": {"type": "Point", "coordinates": [-16.86057323738693, -42.860539531874366]}}, {"type": "Feature", "properties": {"norad_id": 66524, "name": "STARLINK-35687", "group": "last-30-days", "lat": -42.94985349448281, "lon": -14.255551865180893, "alt_km": 400.21753993379025, "timestamp": "2025-12-08T13:49:30.576675+00:00", "meta": {"OBJECT_NAME": "STARLINK-35687", "OBJECT_ID": "2025-265J", "EPOCH": "2025-12-08T06:00:02.999808", "MEAN_MOTION": 15.57922971, "ECCENTRICITY": 0.00010989, "INCLINATION": 43.0003, "RA_OF_ASC_NODE": 80.2914, "ARG_OF_PERICENTER": 267.9674, "MEAN_ANOMALY": 330.3017, "EPHEMERIS_TYPE": 0, "CLASSIFICATION_TYPE": "U", "NORAD_CAT_ID": 66524, "ELEMENT_SET_NO": 999, "REV_AT_EPOCH": 427, "BSTAR": -0.029388501, "MEAN_MOTION_DOT": -0.01981039, "MEAN_MOTION_DDOT": 0}, "tle": {"line1": "1 66524U 25265J   25342.25003472 -.01981039  00000+0 -29389-1 0  9996", "line2": "2 66524  43.0003  80.2914 0001098 267.9674 330.3017 15.57922971  4276"}}, "geometry": {"type": "Point", "coordinates": [-14.255551865180893, -42.94985349448281]}}, {"type": "Feature", "properties": {"norad_id": 66525, "name": "STARLINK-35975", "group": "last-30-days", "lat": -42.979552256236914, "lon": -11.641509370861074, "alt_km": 400.19991246062455, "timestamp": "2025-12-08T13:49:30.576687+00:00", "meta": {"OBJECT_NAME": "STARLINK-35975", "OBJECT_ID": "2025-265K", "EPOCH": "2025-12-08T06:00:02.999808", "MEAN_MOTION": 15.57918655, "ECCENTRICITY": 0.00011104, "INCLINATION": 43.0001, "RA_OF_ASC_NODE": 80.2881, "ARG_OF_PERICENTER": 264.6224, "MEAN_ANOMALY": 335.5633, "EPHEMERIS_TYPE": 0, "CLASSIFICATION_TYPE": "U", "NORAD_CAT_ID": 66525, "ELEMENT_SET_NO": 999, "REV_AT_EPOCH": 427, "BSTAR": -0.029202392, "MEAN_MOTION_DOT": -0.01969762, "MEAN_MOTION_DDOT": 0}, "tle": {"line1": "1 66525U 25265K   25342.25003472 -.01969762  00000+0 -29202-1 0  9990", "line2": "2 66525  43.0001  80.2881 0001110 264.6224 335.5633 15.57918655  4273"}}, "geometry": {"type": "Point", "coordinates": [-11.641509370861074, -42.979552256236914]}}, {"type": "Feature", "properties": {"norad_id": 66526, "name": "STARLINK-35932", "group": "last-30-days", "lat": -42.949910593539045, "lon": -9.029761741183137, "alt_km": 400.19897778639097, "timestamp": "2025-12-08T13:49:30.576697+00:00", "meta": {"OBJECT_NAME": "STARLINK-35932", "OBJECT_ID": "2025-265L", "EPOCH": "2025-12-08T06:00:02.999808", "MEAN_MOTION": 15.57917802, "ECCENTRICITY": 0.00011151, "INCLINATION": 43.0002, "RA_OF_ASC_NODE": 80.283, "ARG_OF_PERICENTER": 264.1165, "MEAN_ANOMALY": 337.9871, "EPHEMERIS_TYPE": 0, "CLASSIFICATION_TYPE": "U", "NORAD_CAT_ID": 66526, "ELEMENT_SET_NO": 999, "REV_AT_EPOCH": 416, "BSTAR": -0.0291814, "MEAN_MOTION_DOT": -0.01968468, "MEAN_MOTION_DDOT": 0}, "tle": {"line1": "1 66526U 25265L   25342.25003472 -.01968468  00000+0 -29181-1 0  9999", "line2": "2 66526  43.0002  80.2830 0001115 264.1165 337.9871 15.57917802  4164"}}, "geometry": {"type": "Point", "coordinates": [-9.029761741183137, -42.949910593539045]}}, {"type": "Feature", "properties": {"norad_id": 66527, "name": "STARLINK-35935", "group": "last-30-days", "lat": -42.86097449795213, "lon": -6.422789566801709, "alt_km": 400.2045953590441, "timestamp": "2025-12-08T13:49:30.576707+00:00", "meta": {"OBJECT_NAME": "STARLINK-35935", "OBJECT_ID": "2025-265M", "EPOCH": "2025-12-08T06:00:02.999808", "MEAN_MOTION": 15.57919779, "ECCENTRICITY": 0.00011202, "INCLINATION": 43.0005, "RA_OF_ASC_NODE": 80.2785, "ARG_OF_PERICENTER": 262.715, "MEAN_ANOMALY": 341.3054, "EPHEMERIS_TYPE": 0, "CLASSIFICATION_TYPE": "U", "NORAD_CAT_ID": 66527, "ELEMENT_SET_NO": 999, "REV_AT_EPOCH": 427, "BSTAR": -0.029253823, "MEAN_MOTION_DOT": -0.01972884, "MEAN_MOTION_DDOT": 0}, "tle": {"line1": "1 66527U 25265M   25342.25003472 -.01972884  00000+0 -29254-1 0  9998", "line2": "2 66527  43.0005  80.2785 0001120 262.7150 341.3054 15.57919779  4270"}}, "geometry": {"type": "Point", "coordinates": [-6.422789566801709, -42.86097449795213]}}, {"type": "Feature", "properties": {"norad_id": 66528, "name": "STARLINK-35928", "group": "last-30-days", "lat": -42.71285743404338, "lon": -3.828339370893595, "alt_km": 400.2250933159903, "timestamp": "2025-12-08T13:49:30.576719+00:00", "meta": {"OBJECT_NAME": "STARLINK-35928", "OBJECT_ID": "2025-265N", "EPOCH": "2025-12-08T06:00:02.999808", "MEAN_MOTION": 15.5791555, "ECCENTRICITY": 0.00010742, "INCLINATION": 43.0006, "RA_OF_ASC_NODE": 80.2738, "ARG_OF_PERICENTER": 264.9149, "MEAN_ANOMALY": 341.0234, "EPHEMERIS_TYPE": 0, "CLASSIFICATION_TYPE": "U", "NORAD_CAT_ID": 66528, "ELEMENT_SET_NO": 999, "REV_AT_EPOCH": 427, "BSTAR": -0.029133483, "MEAN_MOTION_DOT": -0.01965456, "MEAN_MOTION_DDOT": 0}, "tle": {"line1": "1 66528U 25265N   25342.25003472 -.01965456  00000+0 -29133-1 0  9992", "line2": "2 66528  43.0006  80.2738 0001074 264.9149 341.0234 15.57915550  4270"}}, "geometry": {"type": "Point", "coordinates": [-3.828339370893595, -42.71285743404338]}}, {"type": "Feature", "properties": {"norad_id": 66529, "name": "STARLINK-35933", "group": "last-30-days", "lat": -42.505783946377484, "lon": -1.249131122408479, "alt_km": 400.19952539331734, "timestamp": "2025-12-08T13:49:30.576730+00:00", "meta": {"OBJECT_NAME": "STARLINK-35933", "OBJECT_ID": "2025-265P", "EPOCH": "2025-12-08T06:00:02.999808", "MEAN_MOTION": 15.57924433, "ECCENTRICITY": 0.00011153, "INCLINATION": 43.0002, "RA_OF_ASC_NODE": 80.2686, "ARG_OF_PERICENTER": 265.9164, "MEAN_ANOMALY": 341.9349, "EPHEMERIS_TYPE": 0, "CLASSIFICATION_TYPE": "U", "NORAD_CAT_ID": 66529, "ELEMENT_SET_NO": 999, "REV_AT_EPOCH": 427, "BSTAR": -0.029385055, "MEAN_MOTION_DOT": -0.01980943, "MEAN_MOTION_DDOT": 0}, "tle": {"line1": "1 66529U 25265P   25342.25003472 -.01980943  00000+0 -29385-1 0  9990", "line2": "2 66529  43.0002  80.2686 0001115 265.9164 341.9349 15.57924433  4279"}}, "geometry": {"type": "Point", "coordinates": [-1.249131122408479, -42.505783946377484]}}]}